CCSDS_OMM_VERS = 2.0
CREATION_DATE  = 
ORIGINATOR     = 

OBJECT_NAME    = KUIPER-00178
OBJECT_ID      = 2026-030D
CENTER_NAME    = EARTH
REF_FRAME      = TEME
TIME_SYSTEM    = UTC
MEAN_ELEMENT_THEORY = SGP/SGP4

EPOCH          = 2026-02-27T06:51:45.576288
MEAN_MOTION    = 15.35014098
ECCENTRICITY   = .00056584
INCLINATION    = 51.8833
RA_OF_ASC_NODE = 269.3403
ARG_OF_PERICENTER = 20.3753
MEAN_ANOMALY   = 339.7457

EPHEMERIS_TYPE = 0
CLASSIFICATION_TYPE = U
NORAD_CAT_ID   = 67767
ELEMENT_SET_NO = 999
REV_AT_EPOCH   = 349
BSTAR          = .64678774E-3
MEAN_MOTION_DOT = .21998E-3
MEAN_MOTION_DDOT = 0

CCSDS_OMM_VERS = 2.0
CREATION_DATE  = 
ORIGINATOR     = 

OBJECT_NAME    = KUIPER-00180
OBJECT_ID      = 2026-030E
CENTER_NAME    = EARTH
REF_FRAME      = TEME
TIME_SYSTEM    = UTC
MEAN_ELEMENT_THEORY = SGP/SGP4

EPOCH          = 2026-02-27T04:11:19.442976
MEAN_MOTION    = 15.32682734
ECCENTRICITY   = .00146571
INCLINATION    = 51.8820
RA_OF_ASC_NODE = 270.0829
ARG_OF_PERICENTER = 40.2860
MEAN_ANOMALY   = 319.9208

EPHEMERIS_TYPE = 0
CLASSIFICATION_TYPE = U
NORAD_CAT_ID   = 67768
ELEMENT_SET_NO = 999
REV_AT_EPOCH   = 347
BSTAR          = .80034201E-3
MEAN_MOTION_DOT = .25429E-3
MEAN_MOTION_DDOT = 0

CCSDS_OMM_VERS = 2.0
CREATION_DATE  = 
ORIGINATOR     = 

OBJECT_NAME    = KUIPER-00197
OBJECT_ID      = 2026-030F
CENTER_NAME    = EARTH
REF_FRAME      = TEME
TIME_SYSTEM    = UTC
MEAN_ELEMENT_THEORY = SGP/SGP4

EPOCH          = 2026-02-27T05:06:05.724000
MEAN_MOTION    = 15.35875796
ECCENTRICITY   = .00015325
INCLINATION    = 51.8828
RA_OF_ASC_NODE = 269.6010
ARG_OF_PERICENTER = 64.4493
MEAN_ANOMALY   = 295.6651

EPHEMERIS_TYPE = 0
CLASSIFICATION_TYPE = U
NORAD_CAT_ID   = 67769
ELEMENT_SET_NO = 999
REV_AT_EPOCH   = 348
BSTAR          = .83734261E-3
MEAN_MOTION_DOT = .29417E-3
MEAN_MOTION_DDOT = 0

CCSDS_OMM_VERS = 2.0
CREATION_DATE  = 
ORIGINATOR     = 

OBJECT_NAME    = KUIPER-00198
OBJECT_ID      = 2026-030G
CENTER_NAME    = EARTH
REF_FRAME      = TEME
TIME_SYSTEM    = UTC
MEAN_ELEMENT_THEORY = SGP/SGP4

EPOCH          = 2026-02-27T05:11:01.511808
MEAN_MOTION    = 15.35527947
ECCENTRICITY   = .00024228
INCLINATION    = 51.8801
RA_OF_ASC_NODE = 269.6196
ARG_OF_PERICENTER = 29.4411
MEAN_ANOMALY   = 330.6711

EPHEMERIS_TYPE = 0
CLASSIFICATION_TYPE = U
NORAD_CAT_ID   = 67770
ELEMENT_SET_NO = 999
REV_AT_EPOCH   = 348
BSTAR          = .90637177E-3
MEAN_MOTION_DOT = .31527E-3
MEAN_MOTION_DDOT = 0

CCSDS_OMM_VERS = 2.0
CREATION_DATE  = 
ORIGINATOR     = 

OBJECT_NAME    = KUIPER-00199
OBJECT_ID      = 2026-030H
CENTER_NAME    = EARTH
REF_FRAME      = TEME
TIME_SYSTEM    = UTC
MEAN_ELEMENT_THEORY = SGP/SGP4

EPOCH          = 2026-02-27T03:58:58.878336
MEAN_MOTION    = 15.33901073
ECCENTRICITY   = .00103041
INCLINATION    = 51.8816
RA_OF_ASC_NODE = 270.0288
ARG_OF_PERICENTER = 30.8115
MEAN_ANOMALY   = 329.3474

EPHEMERIS_TYPE = 0
CLASSIFICATION_TYPE = U
NORAD_CAT_ID   = 67771
ELEMENT_SET_NO = 999
REV_AT_EPOCH   = 347
BSTAR          = .58212853E-3
MEAN_MOTION_DOT = .19077E-3
MEAN_MOTION_DDOT = 0

CCSDS_OMM_VERS = 2.0
CREATION_DATE  = 
ORIGINATOR     = 

OBJECT_NAME    = KUIPER-00200
OBJECT_ID      = 2026-030J
CENTER_NAME    = EARTH
REF_FRAME      = TEME
TIME_SYSTEM    = UTC
MEAN_ELEMENT_THEORY = SGP/SGP4

EPOCH          = 2026-02-27T04:57:49.587552
MEAN_MOTION    = 15.36506037
ECCENTRICITY   = .00019246
INCLINATION    = 51.8806
RA_OF_ASC_NODE = 269.5615
ARG_OF_PERICENTER = 174.6328
MEAN_ANOMALY   = 185.4680

EPHEMERIS_TYPE = 0
CLASSIFICATION_TYPE = U
NORAD_CAT_ID   = 67772
ELEMENT_SET_NO = 999
REV_AT_EPOCH   = 348
BSTAR          = .95541793E-3
MEAN_MOTION_DOT = .34335E-3
MEAN_MOTION_DDOT = 0

CCSDS_OMM_VERS = 2.0
CREATION_DATE  = 
ORIGINATOR     = 

OBJECT_NAME    = KUIPER-00203
OBJECT_ID      = 2026-030K
CENTER_NAME    = EARTH
REF_FRAME      = TEME
TIME_SYSTEM    = UTC
MEAN_ELEMENT_THEORY = SGP/SGP4

EPOCH          = 2026-02-27T04:02:47.158368
MEAN_MOTION    = 15.33629061
ECCENTRICITY   = .00124303
INCLINATION    = 51.8805
RA_OF_ASC_NODE = 270.0436
ARG_OF_PERICENTER = 32.4897
MEAN_ANOMALY   = 327.6851

EPHEMERIS_TYPE = 0
CLASSIFICATION_TYPE = U
NORAD_CAT_ID   = 67773
ELEMENT_SET_NO = 999
REV_AT_EPOCH   = 347
BSTAR          = .64287509E-3
MEAN_MOTION_DOT = .20945E-3
MEAN_MOTION_DDOT = 0

CCSDS_OMM_VERS = 2.0
CREATION_DATE  = 
ORIGINATOR     = 

OBJECT_NAME    = KUIPER-00205
OBJECT_ID      = 2026-030L
CENTER_NAME    = EARTH
REF_FRAME      = TEME
TIME_SYSTEM    = UTC
MEAN_ELEMENT_THEORY = SGP/SGP4

EPOCH          = 2026-02-27T05:07:04.317024
MEAN_MOTION    = 15.35859173
ECCENTRICITY   = .00020231
INCLINATION    = 51.8803
RA_OF_ASC_NODE = 269.6027
ARG_OF_PERICENTER = 357.3659
MEAN_ANOMALY   = 2.7316

EPHEMERIS_TYPE = 0
CLASSIFICATION_TYPE = U
NORAD_CAT_ID   = 67774
ELEMENT_SET_NO = 999
REV_AT_EPOCH   = 348
BSTAR          = .94172238E-3
MEAN_MOTION_DOT = .33131E-3
MEAN_MOTION_DDOT = 0

CCSDS_OMM_VERS = 2.0
CREATION_DATE  = 
ORIGINATOR     = 

OBJECT_NAME    = KUIPER-00208
OBJECT_ID      = 2026-030M
CENTER_NAME    = EARTH
REF_FRAME      = TEME
TIME_SYSTEM    = UTC
MEAN_ELEMENT_THEORY = SGP/SGP4

EPOCH          = 2026-02-27T01:02:23.329248
MEAN_MOTION    = 15.32876170
ECCENTRICITY   = .00148022
INCLINATION    = 51.8845
RA_OF_ASC_NODE = 270.7110
ARG_OF_PERICENTER = 31.3890
MEAN_ANOMALY   = 328.7975

EPHEMERIS_TYPE = 0
CLASSIFICATION_TYPE = U
NORAD_CAT_ID   = 67775
ELEMENT_SET_NO = 999
REV_AT_EPOCH   = 345
BSTAR          = .63905139E-3
MEAN_MOTION_DOT = .20341E-3
MEAN_MOTION_DDOT = 0

CCSDS_OMM_VERS = 2.0
CREATION_DATE  = 
ORIGINATOR     = 

OBJECT_NAME    = KUIPER-00209
OBJECT_ID      = 2026-030N
CENTER_NAME    = EARTH
REF_FRAME      = TEME
TIME_SYSTEM    = UTC
MEAN_ELEMENT_THEORY = SGP/SGP4

EPOCH          = 2026-02-27T04:10:13.800576
MEAN_MOTION    = 15.32166015
ECCENTRICITY   = .00132404
INCLINATION    = 51.8840
RA_OF_ASC_NODE = 270.0831
ARG_OF_PERICENTER = 31.7878
MEAN_ANOMALY   = 328.3903

EPHEMERIS_TYPE = 0
CLASSIFICATION_TYPE = U
NORAD_CAT_ID   = 67776
ELEMENT_SET_NO = 999
REV_AT_EPOCH   = 347
BSTAR          = .69284038E-3
MEAN_MOTION_DOT = .21581E-3
MEAN_MOTION_DDOT = 0

CCSDS_OMM_VERS = 2.0
CREATION_DATE  = 
ORIGINATOR     = 

OBJECT_NAME    = KUIPER-00213
OBJECT_ID      = 2026-030P
CENTER_NAME    = EARTH
REF_FRAME      = TEME
TIME_SYSTEM    = UTC
MEAN_ELEMENT_THEORY = SGP/SGP4

EPOCH          = 2026-02-27T04:09:36.600192
MEAN_MOTION    = 15.32575886
ECCENTRICITY   = .00143445
INCLINATION    = 51.8823
RA_OF_ASC_NODE = 270.0746
ARG_OF_PERICENTER = 34.7725
MEAN_ANOMALY   = 325.4194

EPHEMERIS_TYPE = 0
CLASSIFICATION_TYPE = U
NORAD_CAT_ID   = 67777
ELEMENT_SET_NO = 999
REV_AT_EPOCH   = 347
BSTAR          = .14911981E-3
MEAN_MOTION_DOT = .4399E-4
MEAN_MOTION_DDOT = 0

CCSDS_OMM_VERS = 2.0
CREATION_DATE  = 
ORIGINATOR     = 

OBJECT_NAME    = KUIPER-00214
OBJECT_ID      = 2026-030Q
CENTER_NAME    = EARTH
REF_FRAME      = TEME
TIME_SYSTEM    = UTC
MEAN_ELEMENT_THEORY = SGP/SGP4

EPOCH          = 2026-02-27T05:00:16.550496
MEAN_MOTION    = 15.36281394
ECCENTRICITY   = .00016307
INCLINATION    = 51.8835
RA_OF_ASC_NODE = 269.5755
ARG_OF_PERICENTER = 172.5044
MEAN_ANOMALY   = 187.5967

EPHEMERIS_TYPE = 0
CLASSIFICATION_TYPE = U
NORAD_CAT_ID   = 67778
ELEMENT_SET_NO = 999
REV_AT_EPOCH   = 348
BSTAR          = .79994808E-3
MEAN_MOTION_DOT = .28454E-3
MEAN_MOTION_DDOT = 0

