KUIPER-00178            
1 67767U 26030D   26058.28594417  .00021998  00000+0  64679-3 0  9998
2 67767  51.8833 269.3403 0005658  20.3753 339.7457 15.35014098  3494
KUIPER-00180            
1 67768U 26030E   26058.17453059  .00025429  00000+0  80034-3 0  9999
2 67768  51.8820 270.0829 0014657  40.2860 319.9208 15.32682734  3478
KUIPER-00197            
1 67769U 26030F   26058.21256625  .00029417  00000+0  83734-3 0  9996
2 67769  51.8828 269.6010 0001532  64.4493 295.6651 15.35875796  3489
KUIPER-00198            
1 67770U 26030G   26058.21598972  .00031527  00000+0  90637-3 0  9997
2 67770  51.8801 269.6196 0002422  29.4411 330.6711 15.35527947  3486
KUIPER-00199            
1 67771U 26030H   26058.16595924  .00019077  00000+0  58213-3 0  9996
2 67771  51.8816 270.0288 0010304  30.8115 329.3474 15.33901073  3470
KUIPER-00200            
1 67772U 26030J   26058.20682393  .00034335  00000+0  95542-3 0  9999
2 67772  51.8806 269.5615 0001924 174.6328 185.4680 15.36506037  3483
KUIPER-00203            
1 67773U 26030K   26058.16860137  .00020945  00000+0  64288-3 0  9994
2 67773  51.8805 270.0436 0012430  32.4897 327.6851 15.33629061  3476
KUIPER-00205            
1 67774U 26030L   26058.21324441  .00033131  00000+0  94172-3 0  9990
2 67774  51.8803 269.6027 0002023 357.3659   2.7316 15.35859173  3486
KUIPER-00208            
1 67775U 26030M   26058.04332557  .00020341  00000+0  63905-3 0  9998
2 67775  51.8845 270.7110 0014802  31.3890 328.7975 15.32876170  3455
KUIPER-00209            
1 67776U 26030N   26058.17377084  .00021581  00000+0  69284-3 0  9990
2 67776  51.8840 270.0831 0013240  31.7878 328.3903 15.32166015  3478
KUIPER-00213            
1 67777U 26030P   26058.17334028  .00004399  00000+0  14912-3 0  9998
2 67777  51.8823 270.0746 0014344  34.7725 325.4194 15.32575886  3475
KUIPER-00214            
1 67778U 26030Q   26058.20852489  .00028454  00000+0  79995-3 0  9999
2 67778  51.8835 269.5755 0001630 172.5044 187.5967 15.36281394  3489
